sat05696
1 05696U 70025MB  20046.75649635  .00000065  00000-0  15607-3 0  9990
2 05696  99.2892 224.1640 0055213 253.0886 174.3179 13.53928770453160
